DMSP 5D-3 F16 (USA 172) 
1 28054U 03048A   25365.59722876  .00000274  00000+0  16693-3 0  9991
2 28054  99.0034  23.2014 0006274 259.9028 210.3888 14.14432129145799
METEOSAT-9 (MSG-2)      
1 28912U 05049B   25364.76068060  .00000134  00000+0  00000+0 0  9999
2 28912   8.9788  55.8054 0003750 148.3792 214.7298  1.00270825  5317
DMSP 5D-3 F17 (USA 191) 
1 29522U 06050A   25365.58077937  .00000330  00000+0  19284-3 0  9990
2 29522  98.7392  10.5776 0010265 169.6297 190.5091 14.14929083988719
FENGYUN 3A              
1 32958U 08026A   25365.43487429  .00000235  00000+0  13182-3 0  9992
2 32958  98.6718 304.5701 0007671 249.4560 110.5793 14.19521610911602
GOES 14                 
1 35491U 09033A   25365.58347110  .00000053  00000+0  00000+0 0  9993
2 35491   1.2518  85.1878 0001031 201.7964 261.7059  1.00097635  4917
DMSP 5D-3 F18 (USA 210) 
1 35951U 09057A   25365.60875595  .00000510  00000+0  28767-3 0  9998
2 35951  98.8855 341.9173 0011408  12.3661 347.7790 14.14783814835890
EWS-G2 (GOES 15)        
1 36411U 10008A   25365.54845755  .00000053  00000+0  00000+0 0  9994
2 36411   0.8589  86.0279 0005854 182.4921  90.4777  1.00271232 57956
COMS 1                  
1 36744U 10032A   25365.58239253 -.00000333  00000+0  00000+0 0  9996
2 36744   4.3842  77.7738 0001204 216.9050 143.4044  1.00270339 49419
FENGYUN 3B              
1 37214U 10059A   25365.64726388  .00000350  00000+0  20479-3 0  9999
2 37214  98.9891  45.7550 0021298 303.1767 218.8555 14.14795682783737
SUOMI NPP               
1 37849U 11061A   25364.87906317  .00000195  00000+0  11345-3 0  9992
2 37849  98.7794 302.0592 0002571  89.2401 270.9069 14.19520347734561
METEOSAT-10 (MSG-3)     
1 38552U 12035B   25365.32234274  .00000006  00000+0  00000+0 0  9996
2 38552   4.2714  61.6716 0001737 260.3463 254.1991  1.00267126 49179
METOP-B                 
1 38771U 12049A   25365.58774564  .00000264  00000+0  14081-3 0  9997
2 38771  98.6773  55.2246 0003355 105.4846 254.6702 14.21416488689453
INSAT-3D                
1 39216U 13038B   25365.58239253 -.00000325  00000+0  00000+0 0  9993
2 39216   1.4926  84.7687 0002132 164.7319 189.9689  1.00270382 45398
FENGYUN 3C              
1 39260U 13052A   25365.61532813  .00000242  00000+0  14444-3 0  9998
2 39260  98.4785 342.3750 0015305 142.2640 217.9611 14.15703128634855
METEOR-M 2              
1 40069U 14037A   25365.61383238  .00000197  00000+0  10931-3 0  9992
2 40069  98.4919 342.4770 0006014 153.0096 207.1395 14.21395025595517
HIMAWARI-8              
1 40267U 14060A   25365.57128182 -.00000260  00000+0  00000+0 0  9992
2 40267   0.0187 192.0161 0001291  92.2751 162.2696  1.00270223 41077
FENGYUN 2G              
1 40367U 14090A   25365.62732471 -.00000292  00000+0  00000+0 0  9999
2 40367   5.2129  74.8660 0002134 176.1393 174.5613  1.00278591 40310
METEOSAT-11 (MSG-4)     
1 40732U 15034A   25365.60947127  .00000074  00000+0  00000+0 0  9995
2 40732   2.7834  71.9493 0000560 134.2272 122.7154  1.00273395  5532
ELEKTRO-L 2             
1 41105U 15074A   25365.39072319 -.00000107  00000+0  00000+0 0  9990
2 41105   6.2703  72.6044 0004056 208.3575 305.2785  1.00270803 36829
INSAT-3DR               
1 41752U 16054A   25365.62229801 -.00000062  00000+0  00000+0 0  9993
2 41752   0.0545  86.2318 0014621 186.5642 125.5075  1.00271141 34132
HIMAWARI-9              
1 41836U 16064A   25365.57128182 -.00000260  00000+0  00000+0 0  9991
2 41836   0.0219 270.5229 0001048  21.3441 154.7915  1.00269647 33532
GOES 16                 
1 41866U 16071A   25365.58685112 -.00000076  00000+0  00000+0 0  9999
2 41866   0.0783 101.2408 0003479 170.1028 295.5038  1.00271022 33422
FENGYUN 4A              
1 41882U 16077A   25363.63483446 -.00000337  00000+0  00000+0 0  9993
2 41882   1.8895  82.2370 0005455 133.7353 234.5589  1.00278199 33236
CYGFM05                 
1 41884U 16078A   25365.18380366  .00030668  00000+0  55851-3 0  9992
2 41884  34.9596 286.5875 0009518 341.8762  18.1620 15.48427928502621
CYGFM04                 
1 41885U 16078B   25365.10795224  .00035930  00000+0  59170-3 0  9993
2 41885  34.9340 261.3197 0007839   7.5163 352.5676 15.51255016502797
CYGFM02                 
1 41886U 16078C   25365.15323397  .00037015  00000+0  57820-3 0  9993
2 41886  34.9428 259.1053 0009425  10.4161 349.6756 15.52700871502932
CYGFM01                 
1 41887U 16078D   25365.16882917  .00031637  00000+0  56398-3 0  9996
2 41887  34.9430 288.9025 0009444 333.3815  26.6421 15.49029882502561
CYGFM08                 
1 41888U 16078E   25365.14552224  .00034798  00000+0  59277-3 0  9990
2 41888  34.9452 271.8279 0010267 359.3033   0.7673 15.50288246502793
CYGFM07                 
1 41890U 16078G   25365.14068734  .00033423  00000+0  55789-3 0  9999
2 41890  34.9470 260.7352 0008047  14.9129 345.1829 15.50888423502813
CYGFM03                 
1 41891U 16078H   25365.10710237  .00036509  00000+0  61144-3 0  9998
2 41891  34.9423 262.8862 0008003 359.2776   0.7934 15.50781134502784
FENGYUN 3D              
1 43010U 17072A   25365.62623336  .00000074  00000+0  56776-4 0  9992
2 43010  98.9911 332.2217 0001845 134.7096 225.4230 14.19689678421212
NOAA 20 (JPSS-1)        
1 43013U 17073A   25365.59858899  .00000178  00000+0  10524-3 0  9991
2 43013  98.7620 301.6911 0001952  60.2533 299.8837 14.19531732420695
GOES 17                 
1 43226U 18022A   25365.58988448 -.00000168  00000+0  00000+0 0  9999
2 43226   0.5054  88.8706 0003409 192.9596 301.2837  1.00270760 28745
FENGYUN 2H              
1 43491U 18050A   25365.62333802 -.00000116  00000+0  00000+0 0  9990
2 43491   2.5972  81.1287 0002819 170.6016 152.2480  1.00268966 27757
METOP-C                 
1 43689U 18087A   25365.61544458  .00000263  00000+0  14009-3 0  9999
2 43689  98.6903  63.0932 0000290 354.5622   5.5552 14.21492553371029
GEO-KOMPSAT-2A          
1 43823U 18100A   25365.56171762 -.00000328  00000+0  00000+0 0  9998
2 43823   0.0433 164.5565 0000147 250.6823  15.4637  1.00270533 25949
METEOR-M2 2             
1 44387U 19038A   25365.63399631  .00000443  00000+0  21169-3 0  9990
2 44387  98.8988 345.5962 0001986 114.6138 245.5248 14.24301319337449
ARKTIKA-M 1             
1 47719U 21016A   25365.01763330 -.00000126  00000+0  00000+0 0  9990
2 47719  63.1798  81.5022 7213228 269.1874  15.4920  2.00630789 35413
FENGYUN 3E              
1 49008U 21062A   25365.63024160  .00000354  00000+0  18769-3 0  9990
2 49008  98.7482   5.9282 0001310 170.1253 189.9949 14.19883693232807
GOES 18                 
1 51850U 22021A   25365.58043774  .00000112  00000+0  00000+0 0  9997
2 51850   0.0098 259.5265 0000613  47.1649 225.4999  1.00270629  4914
NOAA 21 (JPSS-2)        
1 54234U 22150A   25365.56321383  .00000202  00000+0  11656-3 0  9995
2 54234  98.7483 301.6387 0001318 355.6519   4.4646 14.19530385162769
METEOSAT-12 (MTG-I1)    
1 54743U 22170C   25365.60756459  .00000007  00000+0  00000+0 0  9993
2 54743   0.7079  26.8052 0001973 245.1299  46.7308  1.00271370 11295
TIANMU-1 03             
1 55973U 23039A   25365.58529647  .00023195  00000+0  55333-3 0  9994
2 55973  97.5105 168.7712 0003430   3.6964 356.4307 15.41554522154965
TIANMU-1 04             
1 55974U 23039B   25365.62547149  .00024189  00000+0  57020-3 0  9996
2 55974  97.5036 167.9960 0004009 356.0807   4.0407 15.41903818154973
TIANMU-1 05             
1 55975U 23039C   25365.62443851  .00023769  00000+0  56773-3 0  9999
2 55975  97.5083 168.4880 0003630  24.6673 335.4747 15.41510899154950
TIANMU-1 06             
1 55976U 23039D   25365.62701861  .00024322  00000+0  57237-3 0  9990
2 55976  97.5094 168.9713 0003867  17.8582 342.2800 15.41954180154971
FENGYUN 3G              
1 56232U 23055A   25365.63728313  .00044460  00000+0  71326-3 0  9996
2 56232  49.9924 129.9870 0004120 320.6142  39.4525 15.52557356153964
METEOR-M2 3             
1 57166U 23091A   25365.59229861  .00000066  00000+0  47700-4 0  9996
2 57166  98.6350  58.8000 0003002 306.7121  53.3782 14.24028691130665
TIANMU-1 07             
1 57399U 23101A   25365.64948689  .00011459  00000+0  41700-3 0  9999
2 57399  97.2859  55.0833 0004503  31.1440 329.0067 15.28378961136045
TIANMU-1 08             
1 57400U 23101B   25365.61665778  .00012100  00000+0  44027-3 0  9993
2 57400  97.2848  54.8457 0006433  28.9715 331.1881 15.28359884136038
TIANMU-1 09             
1 57401U 23101C   25365.60302429  .00011900  00000+0  43257-3 0  9995
2 57401  97.2804  54.3360 0005725  30.5870 329.5703 15.28399357136036
TIANMU-1 10             
1 57402U 23101D   25365.63732987  .00012215  00000+0  44391-3 0  9995
2 57402  97.2884  55.2394 0007395  26.6105 333.5513 15.28391509136039
FENGYUN 3F              
1 57490U 23111A   25365.61714326  .00000168  00000+0  99738-4 0  9998
2 57490  98.7057  73.6038 0000953 119.0938 241.0334 14.19899318125084
ARKTIKA-M 2             
1 58584U 23198A   25364.77387764  .00000222  00000+0  00000+0 0  9996
2 58584  63.2250 172.9284 6866682 268.0319  18.8389  2.00601843 14943
TIANMU-1 11             
1 58645U 23205A   25365.58236847  .00009999  00000+0  40473-3 0  9990
2 58645  97.3595  24.8760 0007832 229.5279 130.5277 15.24859527111962
TIANMU-1 12             
1 58646U 23205B   25365.61072382  .00010734  00000+0  43575-3 0  9992
2 58646  97.3582  24.7031 0006536 207.8670 152.2218 15.24749779111955
TIANMU-1 13             
1 58647U 23205C   25365.64373543  .00009750  00000+0  39556-3 0  9999
2 58647  97.3610  24.9447 0007308 187.7186 172.3940 15.24794027111958
TIANMU-1 14             
1 58648U 23205D   25365.62734856  .00010175  00000+0  41282-3 0  9998
2 58648  97.3542  24.2598 0007984 193.8130 166.2890 15.24775678111957
TIANMU-1 19             
1 58660U 23208A   25365.60448126  .00015832  00000+0  57717-3 0  9990
2 58660  97.4385 116.6088 0005205 177.1067 183.0204 15.28245792111707
TIANMU-1 20             
1 58661U 23208B   25365.57631802  .00014914  00000+0  52437-3 0  9996
2 58661  97.4323 117.0467 0007221 190.5296 169.5795 15.29434908111770
TIANMU-1 21             
1 58662U 23208C   25365.60955453  .00018564  00000+0  60187-3 0  9998
2 58662  97.4371 119.0738 0006823 185.2062 174.9110 15.32016941111886
TIANMU-1 22             
1 58663U 23208D   25365.60744620  .00014509  00000+0  53379-3 0  9991
2 58663  97.4380 116.6620 0003368 197.5131 162.5993 15.27971354111710
TIANMU-1 15             
1 58700U 24004A   25365.62375091  .00010455  00000+0  42525-3 0  9999
2 58700  97.4625 187.0235 0006361 210.7957 149.2908 15.24698119110223
TIANMU-1 16             
1 58701U 24004B   25365.60855694  .00011045  00000+0  44879-3 0  9990
2 58701  97.4563 186.3823 0004693 211.7224 148.3731 15.24725479110228
TIANMU-1 17             
1 58702U 24004C   25365.59261751  .00011855  00000+0  48086-3 0  9997
2 58702  97.4598 186.7862 0003877 211.4677 148.6329 15.24768260110216
TIANMU-1 18             
1 58703U 24004D   25365.64176125  .00010978  00000+0  44585-3 0  9999
2 58703  97.4617 187.0343 0003293 206.3928 153.7142 15.24748939110223
INSAT-3DS               
1 58990U 24033A   25365.55253090 -.00000140  00000+0  00000+0 0  9997
2 58990   0.0764  96.3478 0001590 182.4439 102.4294  1.00269899 45389
METEOR-M2 4             
1 59051U 24039A   25365.62750686  .00000107  00000+0  67624-4 0  9995
2 59051  98.6793 322.2427 0006154 300.0304  60.0263 14.22404852 95443
GOES 19                 
1 60133U 24119A   25365.59265784 -.00000233  00000+0  00000+0 0  9994
2 60133   0.0056 257.3386 0001253  57.8540 283.2313  1.00270895  5289
FENGYUN 3H              
1 65815U 25219A   25365.54346625  .00000191  00000+0  11037-3 0  9995
2 65815  98.6607 304.7277 0000980 110.7152 249.4130 14.19910796 13595
